[{"OBJECT_NAME":"STARLINK-2570","OBJECT_ID":"2021-038BE","EPOCH":"2026-03-09T21:34:35.486112","MEAN_MOTION":15.30189438,"ECCENTRICITY":0.00011491,"INCLINATION":53.1602,"RA_OF_ASC_NODE":331.8971,"ARG_OF_PERICENTER":114.9213,"MEAN_ANOMALY":245.1907,"EPHEMERIS_TYPE":0,"CLASSIFICATION_TYPE":"U","NORAD_CAT_ID":48405,"ELEMENT_SET_NO":999,"REV_AT_EPOCH":26746,"BSTAR":-2.4708859e-5,"MEAN_MOTION_DOT":-1.091e-5,"MEAN_MOTION_DDOT":0},{"OBJECT_NAME":"CZ-2C DEB","OBJECT_ID":"2026-009D","EPOCH":"2026-03-09T18:06:55.672992","MEAN_MOTION":15.16841441,"ECCENTRICITY":0.00999045,"INCLINATION":97.6656,"RA_OF_ASC_NODE":143.8643,"ARG_OF_PERICENTER":42.8877,"MEAN_ANOMALY":318.0091,"EPHEMERIS_TYPE":0,"CLASSIFICATION_TYPE":"U","NORAD_CAT_ID":67587,"ELEMENT_SET_NO":999,"REV_AT_EPOCH":810,"BSTAR":0.0023439167,"MEAN_MOTION_DOT":0.00052682,"MEAN_MOTION_DDOT":0}]
